NORAD_CAT_ID,OBJECT_NAME,OBJECT_TYPE,EPOCH,MEAN_MOTION,ECCENTRICITY,INCLINATION,RA_OF_ASC_NODE,ARG_OF_PERICENTER,MEAN_ANOMALY,BSTAR,MEAN_MOTION_DOT,MEAN_MOTION_DDOT,TLE_LINE0,TLE_LINE1,TLE_LINE2,SEMIMAJOR_AXIS,PERIOD,APOGEE,PERIGEE,DECAYED
53399.0,STARLINK-4528,PAYLOAD,2024-03-04 13:23:29,15.08854541,0.0001444,53.2176,184.2611,96.1091,264.0066,0.0001364,1.884e-05,0.0,0 STARLINK-4528,1 53399U 22097M   24064.55797588  .00001884  00000-0  13640-3 0  9997,2 53399  53.2176 184.2611 0001444  96.1091 264.0066 15.08854541 87041,6917.836,95.437,540.7,538.702,0.0
53399.0,STARLINK-4528,PAYLOAD,2024-03-05 00:31:11,15.08840267,0.0001391,53.2169,182.174,81.1189,278.9961,0.00012123,1.642e-05,0.0,0 STARLINK-4528,1 53399U 22097M   24065.02166511  .00001642  00000-0  12123-3 0  9993,2 53399  53.2169 182.1740 0001391  81.1189 278.9961 15.08840267 87112,6917.88,95.438,540.707,538.782,0.0
53399.0,STARLINK-4528,PAYLOAD,2024-03-05 13:14:18,15.08819228,0.0001379,53.2166,179.7969,95.057,265.058,-0.000218,-3.754e-05,0.0,0 STARLINK-4528,1 53399U 22097M   24065.55160026 -.00003754  00000-0 -21800-3 0  9996,2 53399  53.2166 179.7969 0001379  95.0570 265.0580 15.08819228 87687,6917.944,95.439,540.763,538.855,0.0
53399.0,STARLINK-4528,PAYLOAD,2024-03-05 18:00:27,15.08825395,0.0001289,53.2158,178.8995,92.911,267.203,-0.00013981,-2.511e-05,0.0,0 STARLINK-4528,1 53399U 22097M   24065.75031887 -.00002511  00000-0 -13981-3 0  9991,2 53399  53.2158 178.8995 0001289  92.9110 267.2030 15.08825395 87229,6917.925,95.438,540.682,538.898,0.0
53399.0,STARLINK-4528,PAYLOAD,2024-03-06 11:29:41,15.08837806,0.0001192,53.2156,175.6321,57.1474,302.9633,7.3174e-06,-1.71e-06,0.0,0 STARLINK-4528,1 53399U 22097M   24066.47895367 -.00000171  00000-0  73174-5 0  9993,2 53399  53.2156 175.6321 0001192  57.1474 302.9633 15.08837806 87332,6917.887,95.438,540.577,538.927,0.0
53399.0,STARLINK-4528,PAYLOAD,2024-03-06 13:05:04,15.08844979,0.0001686,53.2163,175.3351,56.6506,303.4647,-9.9112e-06,-4.46e-06,0.0,0 STARLINK-4528,1 53399U 22097M   24066.54519223 -.00000446  00000-0 -99112-5 0  9991,2 53399  53.2163 175.3351 0001686  56.6506 303.4647 15.08844979 87833,6917.865,95.437,540.897,538.564,0.0
53399.0,STARLINK-4528,PAYLOAD,2024-03-07 14:31:15,15.08835819,0.0001348,53.2162,170.5754,87.6608,272.4539,0.00025486,3.77e-05,0.0,0 STARLINK-4528,1 53399U 22097M   24067.60504364  .00003770  00000-0  25486-3 0  9991,2 53399  53.2162 170.5754 0001348  87.6608 272.4539 15.08835819 87993,6917.893,95.438,540.691,538.826,0.0
53399.0,STARLINK-4528,PAYLOAD,2024-03-08 12:46:38,15.08859894,0.0001612,53.2167,166.4127,91.604,268.5137,0.00042451,6.478e-05,0.0,0 STARLINK-4528,1 53399U 22097M   24068.53239310  .00006478  00000-0  42451-3 0  9999,2 53399  53.2167 166.4127 0001612  91.6040 268.5137 15.08859894 87646,6917.82,95.436,540.8,538.569,0.0
53399.0,STARLINK-4528,PAYLOAD,2024-03-08 23:54:20,15.08851401,0.0001512,53.2168,164.3306,95.3484,264.7681,0.00029448,4.403e-05,0.0,0 STARLINK-4528,1 53399U 22097M   24068.99607430  .00004403  00000-0  29448-3 0  9998,2 53399  53.2168 164.3306 0001512  95.3484 264.7681 15.08851401 87711,6917.846,95.437,540.757,538.665,0.0
53399.0,STARLINK-4528,PAYLOAD,2024-03-09 12:37:26,15.08842791,0.0001209,53.2167,161.953,91.7339,268.3792,0.00019571,2.828e-05,0.0,0 STARLINK-4528,1 53399U 22097M   24069.52599824  .00002828  00000-0  19571-3 0  9990,2 53399  53.2167 161.9530 0001209  91.7339 268.3792 15.08842791 87797,6917.872,95.437,540.573,538.9,0.0
53399.0,STARLINK-4528,PAYLOAD,2024-03-10 06:06:40,15.08836852,0.0001369,53.2154,158.6811,94.6219,265.4929,-9.4486e-05,-1.791e-05,0.0,0 STARLINK-4528,1 53399U 22097M   24070.25464103 -.00001791  00000-0 -94486-4 0  9992,2 53399  53.2154 158.6811 0001369  94.6219 265.4929 15.08836852 87908,6917.89,95.438,540.702,538.808,0.0
53399.0,STARLINK-4528,PAYLOAD,2024-03-10 12:28:13,15.08839817,0.0001292,53.2161,157.4946,86.3886,273.7254,-1.6068e-05,-5.44e-06,0.0,0 STARLINK-4528,1 53399U 22097M   24070.51960182 -.00000544  00000-0 -16068-4 0  9994,2 53399  53.2161 157.4946 0001292  86.3886 273.7254 15.08839817 88431,6917.881,95.438,540.64,538.852,0.0
53399.0,STARLINK-4528,PAYLOAD,2024-03-11 05:57:26,15.08867907,0.0001399,53.2149,154.2197,100.3992,259.7158,0.00051634,7.945e-05,0.0,0 STARLINK-4528,1 53399U 22097M   24071.24821895  .00007945  00000-0  51634-3 0  9999,2 53399  53.2149 154.2197 0001399 100.3992 259.7158 15.08867907 88059,6917.795,95.436,540.628,538.692,0.0
53399.0,STARLINK-4528,PAYLOAD,2024-03-11 12:19:00,15.08824496,0.0001429,53.2168,153.0349,89.7175,270.3981,-0.00034601,-5.788e-05,0.0,0 STARLINK-4528,1 53399U 22097M   24071.51319504 -.00005788  00000-0 -34601-3 0  9998,2 53399  53.2168 153.0349 0001429  89.7175 270.3981 15.08824496 88096,6917.928,95.439,540.781,538.804,0.0
53399.0,STARLINK-4528,PAYLOAD,2024-03-12 12:09:46,15.08842232,0.0001336,53.2159,148.5731,78.3902,281.724,0.00020187,2.926e-05,0.0,0 STARLINK-4528,1 53399U 22097M   24072.50679248  .00002926  00000-0  20187-3 0  9995,2 53399  53.2159 148.5731 0001336  78.3902 281.7240 15.08842232 88248,6917.874,95.437,540.663,538.814,0.0
53399.0,STARLINK-4528,PAYLOAD,2024-03-12 21:42:06,15.08838028,0.0001341,53.2152,146.7885,76.0598,284.0543,0.00051219,7.873e-05,0.0,0 STARLINK-4528,1 53399U 22097M   24072.90423898  .00007873  00000-0  51219-3 0  9993,2 53399  53.2152 146.7885 0001341  76.0598 284.0543 15.08838028 88793,6917.886,95.438,540.679,538.824,0.0
53399.0,STARLINK-4528,PAYLOAD,2024-03-13 05:39:02,15.08834275,0.0001466,53.2159,145.3029,82.1392,277.9766,0.00022628,3.315e-05,0.0,0 STARLINK-4528,1 53399U 22097M   24073.23544152  .00003315  00000-0  22628-3 0  9996,2 53399  53.2159 145.3029 0001466  82.1392 277.9766 15.08834275 88353,6917.898,95.438,540.777,538.749,0.0
53399.0,STARLINK-4528,PAYLOAD,2024-03-13 12:00:34,15.08837659,0.0001551,53.2161,144.1141,87.9643,272.1527,0.00026755,3.972e-05,0.0,0 STARLINK-4528,1 53399U 22097M   24073.50040127  .00003972  00000-0  26755-3 0  9993,2 53399  53.2161 144.1141 0001551  87.9643 272.1527 15.08837659 88884,6917.888,95.438,540.826,538.68,0.0
53399.0,STARLINK-4528,PAYLOAD,2024-03-14 11:51:21,15.0884763,0.000154,53.2158,139.6534,85.5625,274.5543,0.0002547,3.769e-05,0.0,0 STARLINK-4528,1 53399U 22097M   24074.49399794  .00003769  00000-0  25470-3 0  9996,2 53399  53.2158 139.6534 0001540  85.5625 274.5543 15.08847630 88544,6917.857,95.437,540.787,538.657,0.0
53399.0,STARLINK-4528,PAYLOAD,2024-03-15 11:42:09,15.08837795,0.0001577,53.2154,135.1922,74.4629,285.6537,6.9929e-05,8.25e-06,0.0,0 STARLINK-4528,1 53399U 22097M   24075.48760478  .00000825  00000-0  69929-4 0  9995,2 53399  53.2154 135.1922 0001577  74.4629 285.6537 15.08837795 88696,6917.887,95.438,540.843,538.661,0.0
53399.0,STARLINK-4528,PAYLOAD,2024-03-15 13:17:32,15.08840585,0.0001489,53.215,134.8942,77.8758,282.2401,0.00012051,1.63e-05,0.0,0 STARLINK-4528,1 53399U 22097M   24075.55384336  .00001630  00000-0  12051-3 0  9996,2 53399  53.2150 134.8942 0001489  77.8758 282.2401 15.08840585 89192,6917.879,95.438,540.774,538.714,0.0
53399.0,STARLINK-4528,PAYLOAD,2024-03-16 13:08:19,15.0884461,0.0001823,53.2161,130.4278,68.7434,291.3753,0.00020712,3.01e-05,0.0,0 STARLINK-4528,1 53399U 22097M   24076.54744460  .00003010  00000-0  20712-3 0  9991,2 53399  53.2161 130.4278 0001823  68.7434 291.3753 15.08844610 89341,6917.866,95.437,540.992,538.47,0.0
53399.0,STARLINK-4528,PAYLOAD,2024-03-17 03:26:46,15.08872804,0.0001494,53.2139,127.7658,61.1762,298.938,0.0006389,9.904e-05,0.0,0 STARLINK-4528,1 53399U 22097M   24077.14358948  .00009904  00000-0  63890-3 0  9992,2 53399  53.2139 127.7658 0001494  61.1762 298.9380 15.08872804 88942,6917.78,95.435,540.679,538.612,0.0
53399.0,STARLINK-4528,PAYLOAD,2024-03-17 09:48:19,15.08834383,0.0001534,53.2158,126.5642,87.7795,272.3373,-7.1147e-05,-1.42e-05,0.0,0 STARLINK-4528,1 53399U 22097M   24077.40855961 -.00001420  00000-0 -71147-4 0  9990,2 53399  53.2158 126.5642 0001534  87.7795 272.3373 15.08834383 88980,6917.898,95.438,540.824,538.701,0.0
53399.0,STARLINK-4528,PAYLOAD,2024-03-17 12:59:05,15.0883404,0.0001543,53.2159,125.9695,87.7977,272.3192,-8.3639e-05,-1.619e-05,0.0,0 STARLINK-4528,1 53399U 22097M   24077.54103984 -.00001619  00000-0 -83639-4 0  9995,2 53399  53.2159 125.9695 0001543  87.7977 272.3192 15.08834040 89490,6917.899,95.438,540.831,538.696,0.0
53399.0,STARLINK-4528,PAYLOAD,2024-03-18 09:39:06,15.08837236,0.00014,53.2151,122.1047,105.8028,254.3118,-3.2515e-05,-8.05e-06,0.0,0 STARLINK-4528,1 53399U 22097M   24078.40216021 -.00000805  00000-0 -32515-4 0  9991,2 53399  53.2151 122.1047 0001400 105.8028 254.3118 15.08837236 89626,6917.889,95.438,540.722,538.785,0.0
53399.0,STARLINK-4528,PAYLOAD,2024-03-19 09:29:54,15.08839873,0.0001579,53.2157,117.6447,102.0566,258.0603,0.00040252,6.124e-05,0.0,0 STARLINK-4528,1 53399U 22097M   24079.39576543  .00006124  00000-0  40252-3 0  9992,2 53399  53.2157 117.6447 0001579 102.0566 258.0603 15.08839873 89773,6917.881,95.438,540.838,538.653,0.0
53399.0,STARLINK-4528,PAYLOAD,2024-03-20 07:45:17,15.08847138,0.0001714,53.2164,113.4839,110.9129,249.2046,0.00030526,4.574e-05,0.0,0 STARLINK-4528,1 53399U 22097M   24080.32312320  .00004574  00000-0  30526-3 0  9998,2 53399  53.2164 113.4839 0001714 110.9129 249.2046 15.08847138 89422,6917.859,95.437,540.909,538.538,0.0
53399.0,STARLINK-4528,PAYLOAD,2024-03-21 10:46:51,15.08837482,0.0001481,53.2156,108.4258,91.7938,268.3223,-9.1183e-06,-4.33e-06,0.0,0 STARLINK-4528,1 53399U 22097M   24081.44920831 -.00000433  00000-0 -91183-5 0  9994,2 53399  53.2156 108.4258 0001481  91.7938 268.3223 15.08837482 89595,6917.888,95.438,540.778,538.729,0.0
53399.0,STARLINK-4528,PAYLOAD,2024-03-21 18:43:47,15.08839652,0.0001472,53.2156,106.9372,88.4979,271.6182,3.4158e-05,2.56e-06,0.0,0 STARLINK-4528,1 53399U 22097M   24081.78040788  .00000256  00000-0  34158-4 0  9994,2 53399  53.2156 106.9372 0001472  88.4979 271.6182 15.08839652 90137,6917.881,95.438,540.765,538.728,0.0
